Name|Street|City|Phone
Stephen Mclean|Ap #887-7694 Vel, Street|León|1-815-582-7264
Carl Grant|Ap #507-5431 Consectetuer, Avenue|Chippenham|1-472-350-4152
Gareth Farley|926-8145 Velit Rd.|Teralfene|1-885-338-0615
Connor Moody|Ap #519-5601 Nam Street|Redcliffe|1-398-276-0294
Lionel Hardy|Ap #779-5471 Parturient Avenue|Russell|1-600-153-0457
Malcolm Rivers|9697 Odio Avenue|Santa Inês|786-0331
Chandler Small|808 Id, Street|Manchester|866-9125
Melvin Forbes|P.O. Box 623, 440 Vitae Av.|Hope|127-2359
Beck Chaney|7037 Id, St.|North Shore|1-415-575-5984
Barry Oneil|Ap #735-1346 Morbi St.|Paderborn|1-871-845-9917
John Cooper|5605 Aliquam, Av.|Dampremy|1-625-297-0698
Zeus Hendricks|Ap #745-9739 Ac Road|Kaiserslauter|1-818-774-9368
Xenos Quinn|2521 Velit. Street|Lillois-Witterz|1-606-376-0957
Zachary Lucas|3845 Primis Road|Gresham|324-1728
Tanner Case|709-9194 Nisi Avenue|Alma|1-843-676-0425
Porter Pace|Ap #336-5658 Erat Road|Heilbronn|134-3879
Stone Doyle|4222 Sociis Street|Gifhorn|790-1112
Leroy Herring|992-4046 Augue Rd.|Moircy|1-667-407-4848
Kelly Garrison|1551 Vel St.|Ophoven|1-536-830-4978
Matthew Hansen|Ap #255-6637 Vulputate, St.|Saint-Maur-des-Fossés|665-3469
Tarik Bolton|4053 Condimentum. St.|Mellet|410-8364
Solomon Huff|450-6764 Malesuada Av.|Saint-Eug|1-418-254-8956
John Burks|861-9472 Euismod Rd.|Ilhéus|562-0335
Wayne Cameron|Ap #199-5431 Id, Road|Berg|435-2608
Byron Carlson|Ap #733-8212 Vitae Ave|Linton|661-3057
